STARLINK-35149          
1 65512U 25198W   26196.90936575  .00005700  00000+0  17973-3 0  9993
2 65512  53.1587  33.1183 0001219  98.1782 261.9359 15.34394059 48287
STARLINK-35019          
1 65513U 25198X   26196.98081641  .00014229  00000+0  43147-3 0  9995
2 65513  53.1589  32.8573 0001159  96.1763 263.9372 15.34398072 48296
STARLINK-35026          
1 65514U 25198Y   26196.92458308  .00012200  00000+0  37164-3 0  9997
2 65514  53.1596  34.6325 0001107  99.4379 260.6749 15.34396817 48266
STARLINK-35241          
1 65515U 25198Z   26196.84690920  .00007336  00000+0  22803-3 0  9995
2 65515  53.1596  35.5646 0001230  81.5595 278.5547 15.34399424 48241
STARLINK-35216          
1 65516U 25198AA  26196.81534840  .00011106  00000+0  33936-3 0  9990
2 65516  53.1613  35.3674 0001165  98.3811 261.7324 15.34398387 48249
STARLINK-35228          
1 65517U 25198AB  26196.94715132  .00010910  00000+0  33363-3 0  9996
2 65517  53.1587  32.6429 0001219  79.0323 281.0816 15.34394195 48291
STARLINK-35232          
1 65518U 25198AC  26196.93040838  .00007215  00000+0  22456-3 0  9995
2 65518  53.1611  33.2425 0001457  92.0703 268.0466 15.34388829 48286
STARLINK-35164          
1 65519U 25198AD  26196.92409622  .00011231  00000+0  34303-3 0  9992
2 65519  53.1589  33.2058 0001149  94.6322 265.4811 15.34399255 48286
STARLINK-35112          
1 65520U 25200A   26197.16668980  .00029927  00000+0  92578-3 0  9998
2 65520  97.2843 264.5822 0001861  87.0151 177.0217 15.33440131  5779
STARLINK-35187          
1 65521U 25200B   26197.16668980  .03499638  00000+0  10213+0 0  9994
2 65521  97.2858 264.4760 0000730  52.9610 317.4780 15.31234243  5780
STARLINK-35188          
1 65522U 25200C   26197.16668980  .01580091  00000+0  46092-1 0  9993
2 65522  97.2839 264.5329 0001649  74.3747  40.3102 15.32361211  5733
STARLINK-35078          
1 65523U 25200D   26197.16668980  .00033353  00000+0  10314-2 0  9996
2 65523  97.2842 264.5808 0001579  85.9369 163.0422 15.33428011  5775
STARLINK-35055          
1 65524U 25200E   26197.16668980  .00035843  00000+0  11082-2 0  9996
2 65524  97.2842 264.5679 0001848  89.3266 129.6694 15.33419759  5728
STARLINK-35057          
1 65525U 25200F   26197.12428523  .00018669  00000+0  57858-3 0  9999
2 65525  97.2841 264.5334 0001788 106.2494 253.8945 15.33477697 48474
STARLINK-34674          
1 65526U 25200G   26197.16668980  .01963738  00000+0  61331-1 0  9993
2 65526  97.2838 264.4973 0001940  85.4054 304.4546 15.29967766  5681
STARLINK-35067          
1 65527U 25200H   26197.16668980  .00039472  00000+0  12196-2 0  9998
2 65527  97.2839 264.5033 0001068 105.9326 308.0663 15.33417997  5773
STARLINK-35063          
1 65528U 25200J   26197.16668980  .03389591  00000+0  10567+0 0  9999
2 65528  97.2828 264.5220 0001359  80.2408  25.7864 15.29205315  5780
STARLINK-35077          
1 65529U 25200K   26197.16668980  .00038785  00000+0  11986-2 0  9992
2 65529  97.2837 264.4535 0001654  93.1384 215.8597 15.33416707  5726
STARLINK-35152          
1 65530U 25200L   26197.16668980  .01642060  00000+0  47869-1 0  9990
2 65530  97.2838 264.5004 0001631  77.5462 322.2356 15.32261721  5784
STARLINK-35064          
1 65531U 25200M   26197.16668980  .00051727  00000+0  15996-2 0  9991
2 65531  97.2854 264.4595 0001624  77.9321 261.1731 15.33325397  5720
STARLINK-35170          
1 65532U 25200N   26197.16668980  .00046509  00000+0  14356-2 0  9993
2 65532  97.2838 264.5651 0001621 103.7938  85.1944 15.33410517  5589
STARLINK-35172          
1 65533U 25200P   26197.16668980  .00037333  00000+0  11537-2 0  9997
2 65533  97.2839 264.5453 0002026  84.9295  74.0768 15.33425648  5725
STARLINK-35125          
1 65534U 25200Q   26197.16668980  .00046281  00000+0  14289-2 0  9997
2 65534  97.2837 264.5428 0001481  86.9432  57.0784 15.33405732  5636
STARLINK-35133          
1 65535U 25200R   26197.16668980  .00037070  00000+0  11456-2 0  9997
2 65535  97.2837 264.5688 0001821  87.6446 116.3396 15.33427119  5783
STARLINK-35044          
1 65536U 25200S   26197.16668980  .00032715  00000+0  10117-2 0  9992
2 65536  97.2841 264.6044 0001620  88.0422 205.9303 15.33430627  5727
STARLINK-35136          
1 65537U 25200T   26197.18140093  .00014178  00000+0  44070-3 0  9994
2 65537  97.2845 264.6061 0001552  92.9061 267.2359 15.33442531 48397
STARLINK-35144          
1 65538U 25200U   26197.16668980  .00038122  00000+0  11777-2 0  9995
2 65538  97.2839 264.5350 0001708  84.4828  44.4903 15.33431015  5579
STARLINK-35110          
1 65539U 25200V   26197.16668980  .00054001  00000+0  16661-2 0  9997
2 65539  97.2838 264.5569 0001987  80.4428  93.4917 15.33386353  5733
STARLINK-35052          
1 65540U 25200W   26197.16668980  .03517606  00000+0  11503+0 0  9994
2 65540  97.2813 264.4770 0001366  69.6749 299.0080 15.27463774  5682
STARLINK-35087          
1 65541U 25200X   26197.16668980  .04159594  00000+0  12801+0 0  9996
2 65541  97.2847 264.4549 0001203  27.0690 301.4699 15.29454452  5675
