OBJECT_NAME,OBJECT_ID,EPOCH,MEAN_MOTION,ECCENTRICITY,INCLINATION,RA_OF_ASC_NODE,ARG_OF_PERICENTER,MEAN_ANOMALY,EPHEMERIS_TYPE,CLASSIFICATION_TYPE,NORAD_CAT_ID,ELEMENT_SET_NO,REV_AT_EPOCH,BSTAR,MEAN_MOTION_DOT,MEAN_MOTION_DDOT
STARLINK-35149,2025-198W,2026-07-15T21:49:29.200800,15.34394059,.0001219,53.1587,33.1183,98.1782,261.9359,0,U,65512,999,4828,.17973E-3,.57E-4,0
STARLINK-35019,2025-198X,2026-07-15T23:32:22.537824,15.34398072,.0001159,53.1589,32.8573,96.1763,263.9372,0,U,65513,999,4829,.43147E-3,.14229E-3,0
STARLINK-35026,2025-198Y,2026-07-15T22:11:23.978112,15.34396817,.0001107,53.1596,34.6325,99.4379,260.6749,0,U,65514,999,4826,.37164E-3,.122E-3,0
STARLINK-35241,2025-198Z,2026-07-15T20:19:32.954880,15.34399424,.00012304,53.1596,35.5646,81.5595,278.5547,0,U,65515,999,4824,.22803109E-3,.7336E-4,0
STARLINK-35216,2025-198AA,2026-07-15T19:34:06.101760,15.34398387,.00011653,53.1613,35.3674,98.3811,261.7324,0,U,65516,999,4824,.33936354E-3,.11106E-3,0
STARLINK-35228,2025-198AB,2026-07-15T22:43:53.874048,15.34394195,.0001219,53.1587,32.6429,79.0323,281.0816,0,U,65517,999,4829,.33363E-3,.1091E-3,0
STARLINK-35232,2025-198AC,2026-07-15T22:19:47.284032,15.34388829,.0001457,53.1611,33.2425,92.0703,268.0466,0,U,65518,999,4828,.22456E-3,.7215E-4,0
STARLINK-35164,2025-198AD,2026-07-15T22:10:41.913408,15.34399255,.0001149,53.1589,33.2058,94.6322,265.4811,0,U,65519,999,4828,.34303E-3,.11231E-3,0
STARLINK-35112,2025-200A,2026-07-16T04:00:01.998720,15.33440131,.0001861,97.2843,264.5822,87.0151,177.0217,0,U,65520,999,577,.92578E-3,.29927E-3,0
STARLINK-35187,2025-200B,2026-07-16T04:00:01.998720,15.31234243,.000073,97.2858,264.4760,52.9610,317.4780,0,U,65521,999,578,.10213E+0,.3499638E-1,0
STARLINK-35188,2025-200C,2026-07-16T04:00:01.998720,15.32361211,.0001649,97.2839,264.5329,74.3747,40.3102,0,U,65522,999,573,.46092E-1,.1580091E-1,0
STARLINK-35078,2025-200D,2026-07-16T04:00:01.998720,15.33428011,.0001579,97.2842,264.5808,85.9369,163.0422,0,U,65523,999,577,.10314E-2,.33353E-3,0
STARLINK-35055,2025-200E,2026-07-16T04:00:01.998720,15.33419759,.0001848,97.2842,264.5679,89.3266,129.6694,0,U,65524,999,572,.11082E-2,.35843E-3,0
STARLINK-35057,2025-200F,2026-07-16T02:58:58.243872,15.33477697,.0001788,97.2841,264.5334,106.2494,253.8945,0,U,65525,999,4847,.57858E-3,.18669E-3,0
STARLINK-34674,2025-200G,2026-07-16T04:00:01.998720,15.29967766,.000194,97.2838,264.4973,85.4054,304.4546,0,U,65526,999,568,.61331E-1,.1963738E-1,0
STARLINK-35067,2025-200H,2026-07-16T04:00:01.998720,15.33417997,.0001068,97.2839,264.5033,105.9326,308.0663,0,U,65527,999,577,.12196E-2,.39472E-3,0
STARLINK-35063,2025-200J,2026-07-16T04:00:01.998720,15.29205315,.0001359,97.2828,264.5220,80.2408,25.7864,0,U,65528,999,578,.10567E+0,.3389591E-1,0
STARLINK-35077,2025-200K,2026-07-16T04:00:01.998720,15.33416707,.0001654,97.2837,264.4535,93.1384,215.8597,0,U,65529,999,572,.11986E-2,.38785E-3,0
STARLINK-35152,2025-200L,2026-07-16T04:00:01.998720,15.32261721,.0001631,97.2838,264.5004,77.5462,322.2356,0,U,65530,999,578,.47869E-1,.164206E-1,0
STARLINK-35064,2025-200M,2026-07-16T04:00:01.998720,15.33325397,.0001624,97.2854,264.4595,77.9321,261.1731,0,U,65531,999,572,.15996E-2,.51727E-3,0
STARLINK-35170,2025-200N,2026-07-16T04:00:01.998720,15.33410517,.0001621,97.2838,264.5651,103.7938,85.1944,0,U,65532,999,558,.14356E-2,.46509E-3,0
STARLINK-35172,2025-200P,2026-07-16T04:00:01.998720,15.33425648,.0002026,97.2839,264.5453,84.9295,74.0768,0,U,65533,999,572,.11537E-2,.37333E-3,0
STARLINK-35125,2025-200Q,2026-07-16T04:00:01.998720,15.33405732,.0001481,97.2837,264.5428,86.9432,57.0784,0,U,65534,999,563,.14289E-2,.46281E-3,0
STARLINK-35133,2025-200R,2026-07-16T04:00:01.998720,15.33427119,.0001821,97.2837,264.5688,87.6446,116.3396,0,U,65535,999,578,.11456E-2,.3707E-3,0
STARLINK-35044,2025-200S,2026-07-16T04:00:01.998720,15.33430627,.000162,97.2841,264.6044,88.0422,205.9303,0,U,65536,999,572,.10117E-2,.32715E-3,0
STARLINK-35136,2025-200T,2026-07-16T04:21:13.040352,15.33442531,.0001552,97.2845,264.6061,92.9061,267.2359,0,U,65537,999,4839,.4407E-3,.14178E-3,0
STARLINK-35144,2025-200U,2026-07-16T04:00:01.998720,15.33431015,.0001708,97.2839,264.5350,84.4828,44.4903,0,U,65538,999,557,.11777E-2,.38122E-3,0
STARLINK-35110,2025-200V,2026-07-16T04:00:01.998720,15.33386353,.0001987,97.2838,264.5569,80.4428,93.4917,0,U,65539,999,573,.16661E-2,.54001E-3,0
STARLINK-35052,2025-200W,2026-07-16T04:00:01.998720,15.27463774,.0001366,97.2813,264.4770,69.6749,299.0080,0,U,65540,999,568,.11503E+0,.3517606E-1,0
STARLINK-35087,2025-200X,2026-07-16T04:00:01.998720,15.29454452,.0001203,97.2847,264.4549,27.0690,301.4699,0,U,65541,999,567,.12801E+0,.4159594E-1,0
